[{"OBJECT_NAME":"STARLINK-2047","OBJECT_ID":"2021-005G","EPOCH":"2026-03-10T00:00:02.999808","MEAN_MOTION":15.23829448,"ECCENTRICITY":0.00019541,"INCLINATION":53.1308,"RA_OF_ASC_NODE":9.4335,"ARG_OF_PERICENTER":84.915,"MEAN_ANOMALY":56.4061,"EPHEMERIS_TYPE":0,"CLASSIFICATION_TYPE":"U","NORAD_CAT_ID":47355,"ELEMENT_SET_NO":999,"REV_AT_EPOCH":579,"BSTAR":0.032844419,"MEAN_MOTION_DOT":0.0086171,"MEAN_MOTION_DDOT":0},{"OBJECT_NAME":"COSMOS 2251 DEB","OBJECT_ID":"1993-036BBV","EPOCH":"2026-02-27T18:16:57.594144","MEAN_MOTION":15.17732907,"ECCENTRICITY":0.00280345,"INCLINATION":73.8349,"RA_OF_ASC_NODE":92.9986,"ARG_OF_PERICENTER":278.5786,"MEAN_ANOMALY":81.2232,"EPHEMERIS_TYPE":0,"CLASSIFICATION_TYPE":"U","NORAD_CAT_ID":36470,"ELEMENT_SET_NO":999,"REV_AT_EPOCH":67258,"BSTAR":0.0034538195,"MEAN_MOTION_DOT":0.00071068,"MEAN_MOTION_DDOT":0}]
